{
  "type": "FeatureCollection",
  "features": [
    {
      "type": "Feature",
      "properties": {
        "norad_id": 37846,
        "name": "GSAT0101 (GALILEO-PFM)",
        "group": "gnss",
        "lat": 10.687631838907052,
        "lon": 159.85524014896285,
        "alt_km": 23228.114068189152,
        "timestamp": "2025-12-10T05:46:14.063879+00:00",
        "meta_object_name": "GSAT0101 (GALILEO-PFM)",
        "meta_object_id": "2011-060A",
        "meta_epoch": "2025-12-08T19:04:30.018432",
        "meta_mean_motion": 1.70475601,
        "meta_eccentricity": 0.00029509,
        "meta_inclination": 57.0536,
        "meta_ra_of_asc_node": 346.9268,
        "meta_arg_of_pericenter": 313.0699,
        "meta_mean_anomaly": 46.9223,
        "meta_ephemeris_type": 0,
        "meta_classification_type": "U",
        "meta_norad_cat_id": 37846,
        "meta_element_set_no": 999,
        "meta_rev_at_epoch": 8787,
        "meta_bstar": 0,
        "meta_mean_motion_dot": -8.7e-07,
        "meta_mean_motion_ddot": 0,
        "tle_line1": "1 37846U 11060A   25342.79479188 -.00000087  00000+0  00000+0 0  9999",
        "tle_line2": "2 37846  57.0536 346.9268 0002950 313.0699  46.9223  1.70475601 87878"
      },
      "geometry": {
        "type": "Point",
        "coordinates": [
          159.85524014896285,
          10.687631838907052
        ]
      }
    },
    {
      "type": "Feature",
      "properties": {
        "norad_id": 37847,
        "name": "GSAT0102 (GALILEO-FM2)",
        "group": "gnss",
        "lat": -26.917086179311838,
        "lon": -173.89020231158347,
        "alt_km": 23226.948150767385,
        "timestamp": "2025-12-10T05:46:14.063896+00:00",
        "meta_object_name": "GSAT0102 (GALILEO-FM2)",
        "meta_object_id": "2011-060B",
        "meta_epoch": "2025-12-09T14:02:59.398080",
        "meta_mean_motion": 1.7047581,
        "meta_eccentricity": 0.0004922,
        "meta_inclination": 57.0542,
        "meta_ra_of_asc_node": 346.9059,
        "meta_arg_of_pericenter": 308.4092,
        "meta_mean_anomaly": 222.2657,
        "meta_ephemeris_type": 0,
        "meta_classification_type": "U",
        "meta_norad_cat_id": 37847,
        "meta_element_set_no": 999,
        "meta_rev_at_epoch": 8789,
        "meta_bstar": 0,
        "meta_mean_motion_dot": -8.7e-07,
        "meta_mean_motion_ddot": 0,
        "tle_line1": "1 37847U 11060B   25343.58540970 -.00000087  00000+0  00000+0 0  9996",
        "tle_line2": "2 37847  57.0542 346.9059 0004922 308.4092 222.2657  1.70475810 87894"
      },
      "geometry": {
        "type": "Point",
        "coordinates": [
          -173.89020231158347,
          -26.917086179311838
        ]
      }
    },
    {
      "type": "Feature",
      "properties": {
        "norad_id": 37867,
        "name": "COSMOS 2476 (744)",
        "group": "gnss",
        "lat": -58.15957201757851,
        "lon": 31.123765446480057,
        "alt_km": 19103.068086258976,
        "timestamp": "2025-12-10T05:46:14.063908+00:00",
        "meta_object_name": "COSMOS 2476 (744)",
        "meta_object_id": "2011-064A",
        "meta_epoch": "2025-12-09T09:41:55.720032",
        "meta_mean_motion": 2.13101239,
        "meta_eccentricity": 0.0023895,
        "meta_inclination": 65.1605,
        "meta_ra_of_asc_node": 79.2843,
        "meta_arg_of_pericenter": 233.5536,
        "meta_mean_anomaly": 135.2332,
        "meta_ephemeris_type": 0,
        "meta_classification_type": "U",
        "meta_norad_cat_id": 37867,
        "meta_element_set_no": 999,
        "meta_rev_at_epoch": 10972,
        "meta_bstar": 0,
        "meta_mean_motion_dot": -1.4e-07,
        "meta_mean_motion_ddot": 0,
        "tle_line1": "1 37867U 11064A   25343.40411713 -.00000014  00000+0  00000+0 0  9995",
        "tle_line2": "2 37867  65.1605  79.2843 0023895 233.5536 135.2332  2.13101239109723"
      },
      "geometry": {
        "type": "Point",
        "coordinates": [
          31.123765446480057,
          -58.15957201757851
        ]
      }
    },
    {
      "type": "Feature",
      "properties": {
        "norad_id": 37868,
        "name": "COSMOS 2477 (745)",
        "group": "gnss",
        "lat": 57.85425997842094,
        "lon": -148.03134999582872,
        "alt_km": 19152.641607356636,
        "timestamp": "2025-12-10T05:46:14.063921+00:00",
        "meta_object_name": "COSMOS 2477 (745)",
        "meta_object_id": "2011-064B",
        "meta_epoch": "2025-12-09T06:11:12.657696",
        "meta_mean_motion": 2.13102656,
        "meta_eccentricity": 0.0021072,
        "meta_inclination": 65.167,
        "meta_ra_of_asc_node": 79.367,
        "meta_arg_of_pericenter": 234.1716,
        "meta_mean_anomaly": 203.2692,
        "meta_ephemeris_type": 0,
        "meta_classification_type": "U",
        "meta_norad_cat_id": 37868,
        "meta_element_set_no": 999,
        "meta_rev_at_epoch": 10971,
        "meta_bstar": 0,
        "meta_mean_motion_dot": -1.4e-07,
        "meta_mean_motion_ddot": 0,
        "tle_line1": "1 37868U 11064B   25343.25778539 -.00000014  00000+0  00000+0 0  9991",
        "tle_line2": "2 37868  65.1670  79.3670 0021072 234.1716 203.2692  2.13102656109715"
      },
      "geometry": {
        "type": "Point",
        "coordinates": [
          -148.03134999582872,
          57.85425997842094
        ]
      }
    },
    {
      "type": "Feature",
      "properties": {
        "norad_id": 37869,
        "name": "COSMOS 2475 (743)",
        "group": "gnss",
        "lat": 56.84606385448501,
        "lon": 124.39638602755083,
        "alt_km": 19190.1421333467,
        "timestamp": "2025-12-10T05:46:14.063936+00:00",
        "meta_object_name": "COSMOS 2475 (743)",
        "meta_object_id": "2011-064C",
        "meta_epoch": "2025-12-09T06:02:05.700768",
        "meta_mean_motion": 2.13101306,
        "meta_eccentricity": 0.0026081,
        "meta_inclination": 65.1742,
        "meta_ra_of_asc_node": 79.3871,
        "meta_arg_of_pericenter": 248.2695,
        "meta_mean_anomaly": 140.2782,
        "meta_ephemeris_type": 0,
        "meta_classification_type": "U",
        "meta_norad_cat_id": 37869,
        "meta_element_set_no": 999,
        "meta_rev_at_epoch": 10972,
        "meta_bstar": 0,
        "meta_mean_motion_dot": -1.3e-07,
        "meta_mean_motion_ddot": 0,
        "tle_line1": "1 37869U 11064C   25343.25145487 -.00000013  00000+0  00000+0 0  9991",
        "tle_line2": "2 37869  65.1742  79.3871 0026081 248.2695 140.2782  2.13101306109728"
      },
      "geometry": {
        "type": "Point",
        "coordinates": [
          124.39638602755083,
          56.84606385448501
        ]
      }
    },
    {
      "type": "Feature",
      "properties": {
        "norad_id": 37948,
        "name": "BEIDOU-2 IGSO-5 (C10)",
        "group": "gnss",
        "lat": -10.540452447947741,
        "lon": -95.75659559571429,
        "alt_km": 36036.14541245907,
        "timestamp": "2025-12-10T05:46:14.063948+00:00",
        "meta_object_name": "BEIDOU-2 IGSO-5 (C10)",
        "meta_object_id": "2011-073A",
        "meta_epoch": "2025-12-09T19:08:31.399296",
        "meta_mean_motion": 1.00291503,
        "meta_eccentricity": 0.0110301,
        "meta_inclination": 48.0257,
        "meta_ra_of_asc_node": 273.8934,
        "meta_arg_of_pericenter": 222.226,
        "meta_mean_anomaly": 322.5967,
        "meta_ephemeris_type": 0,
        "meta_classification_type": "U",
        "meta_norad_cat_id": 37948,
        "meta_element_set_no": 999,
        "meta_rev_at_epoch": 5123,
        "meta_bstar": 0,
        "meta_mean_motion_dot": -2.09e-06,
        "meta_mean_motion_ddot": 0,
        "tle_line1": "1 37948U 11073A   25343.79758564 -.00000209  00000+0  00000+0 0  9991",
        "tle_line2": "2 37948  48.0257 273.8934 0110301 222.2260 322.5967  1.00291503 51233"
      },
      "geometry": {
        "type": "Point",
        "coordinates": [
          -95.75659559571429,
          -10.540452447947741
        ]
      }
    },
    {
      "type": "Feature",
      "properties": {
        "norad_id": 37951,
        "name": "LUCH 5A (SDCM/PRN 140)",
        "group": "gnss",
        "lat": -8.044838477775649,
        "lon": -27.24914362776731,
        "alt_km": 35781.05780279438,
        "timestamp": "2025-12-10T05:46:14.063960+00:00",
        "meta_object_name": "LUCH 5A (SDCM/PRN 140)",
        "meta_object_id": "2011-074B",
        "meta_epoch": "2025-12-09T14:21:55.626336",
        "meta_mean_motion": 1.00274304,
        "meta_eccentricity": 0.0005724,
        "meta_inclination": 8.2722,
        "meta_ra_of_asc_node": 76.6308,
        "meta_arg_of_pericenter": 178.9683,
        "meta_mean_anomaly": 205.5039,
        "meta_ephemeris_type": 0,
        "meta_classification_type": "U",
        "meta_norad_cat_id": 37951,
        "meta_element_set_no": 999,
        "meta_rev_at_epoch": 5115,
        "meta_bstar": 0,
        "meta_mean_motion_dot": -4.7e-07,
        "meta_mean_motion_ddot": 0,
        "tle_line1": "1 37951U 11074B   25343.59856049 -.00000047  00000+0  00000+0 0  9991",
        "tle_line2": "2 37951   8.2722  76.6308 0005724 178.9683 205.5039  1.00274304 51155"
      },
      "geometry": {
        "type": "Point",
        "coordinates": [
          -27.24914362776731,
          -8.044838477775649
        ]
      }
    }
  ]
}